{
  "links" : {
    "next" : "https://api.nasa.gov/neo/rest/v1/feed?start_date=2012-07-09&end_date=2012-07-09&detailed=true&api_key=t0TVs3DtDT2H8Oy2Zy8m2eVrNsAVKAexjcZXUckd",
    "prev" : "https://api.nasa.gov/neo/rest/v1/feed?start_date=2012-07-07&end_date=2012-07-07&detailed=true&api_key=t0TVs3DtDT2H8Oy2Zy8m2eVrNsAVKAexjcZXUckd",
    "self" : "https://api.nasa.gov/neo/rest/v1/feed?start_date=2012-07-08&end_date=2012-07-08&detailed=true&api_key=t0TVs3DtDT2H8Oy2Zy8m2eVrNsAVKAexjcZXUckd"
  },
  "element_count" : 8,
  "near_earth_objects" : {
    "2012-07-08" : [ {
      "links" : {
        "self" : "https://api.nasa.gov/neo/rest/v1/neo/3630272?api_key=t0TVs3DtDT2H8Oy2Zy8m2eVrNsAVKAexjcZXUckd"
      },
      "neo_reference_id" : "3630272",
      "name" : "(2013 ER4)",
      "nasa_jpl_url" : "http://ssd.jpl.nasa.gov/sbdb.cgi?sstr=3630272",
      "absolute_magnitude_h" : 25.0,
      "estimated_diameter" : {
        "kilometers" : {
          "estimated_diameter_min" : 0.02658,
          "estimated_diameter_max" : 0.0594346868
        },
        "meters" : {
          "estimated_diameter_min" : 26.58,
          "estimated_diameter_max" : 59.4346868419
        },
        "miles" : {
          "estimated_diameter_min" : 0.0165160412,
          "estimated_diameter_max" : 0.0369309908
        },
        "feet" : {
          "estimated_diameter_min" : 87.2047272,
          "estimated_diameter_max" : 194.9956979785
        }
      },
      "is_potentially_hazardous_asteroid" : false,
      "close_approach_data" : [ {
        "close_approach_date" : "2012-07-08",
        "epoch_date_close_approach" : 1341730800000,
        "relative_velocity" : {
          "kilometers_per_second" : "7.9951373049",
          "kilometers_per_hour" : "28782.4942978069",
          "miles_per_hour" : "17884.3226374345"
        },
        "miss_distance" : {
          "astronomical" : "0.4494849889",
          "lunar" : "174.8496551514",
          "kilometers" : "67241992",
          "miles" : "41782240"
        },
        "orbiting_body" : "Earth"
      } ],
      "orbital_data" : {
        "orbit_id" : "7",
        "orbit_determination_date" : "2017-04-06 08:46:35",
        "orbit_uncertainty" : "8",
        "minimum_orbit_intersection" : ".0276474",
        "jupiter_tisserand_invariant" : "5.339",
        "epoch_osculation" : "2456357.5",
        "eccentricity" : ".2982784300475799",
        "semi_major_axis" : "1.171677992547806",
        "inclination" : "7.433094752212908",
        "ascending_node_longitude" : "336.547794477366",
        "orbital_period" : "463.245101806826",
        "perihelion_distance" : ".8221917204093466",
        "perihelion_argument" : "92.004508826299",
        "aphelion_distance" : "1.521164264686266",
        "perihelion_time" : "2456279.000229666261",
        "mean_anomaly" : "61.00424421094143",
        "mean_motion" : ".7771264037026356",
        "equinox" : "J2000"
      }
    }, {
      "links" : {
        "self" : "https://api.nasa.gov/neo/rest/v1/neo/3742057?api_key=t0TVs3DtDT2H8Oy2Zy8m2eVrNsAVKAexjcZXUckd"
      },
      "neo_reference_id" : "3742057",
      "name" : "(2016 CE31)",
      "nasa_jpl_url" : "http://ssd.jpl.nasa.gov/sbdb.cgi?sstr=3742057",
      "absolute_magnitude_h" : 27.6,
      "estimated_diameter" : {
        "kilometers" : {
          "estimated_diameter_min" : 0.0080270317,
          "estimated_diameter_max" : 0.0179489885
        },
        "meters" : {
          "estimated_diameter_min" : 8.0270316728,
          "estimated_diameter_max" : 17.948988478
        },
        "miles" : {
          "estimated_diameter_min" : 0.0049877647,
          "estimated_diameter_max" : 0.0111529809
        },
        "feet" : {
          "estimated_diameter_min" : 26.3354065935,
          "estimated_diameter_max" : 58.8877593581
        }
      },
      "is_potentially_hazardous_asteroid" : false,
      "close_approach_data" : [ {
        "close_approach_date" : "2012-07-08",
        "epoch_date_close_approach" : 1341730800000,
        "relative_velocity" : {
          "kilometers_per_second" : "16.2137418939",
          "kilometers_per_hour" : "58369.470818026",
          "miles_per_hour" : "36268.5192424562"
        },
        "miss_distance" : {
          "astronomical" : "0.2984553181",
          "lunar" : "116.0991210938",
          "kilometers" : "44648280",
          "miles" : "27743156"
        },
        "orbiting_body" : "Earth"
      } ],
      "orbital_data" : {
        "orbit_id" : "9",
        "orbit_determination_date" : "2017-04-06 08:28:36",
        "orbit_uncertainty" : "6",
        "minimum_orbit_intersection" : ".00189975",
        "jupiter_tisserand_invariant" : "5.877",
        "epoch_osculation" : "2458000.5",
        "eccentricity" : ".2511969969719456",
        "semi_major_axis" : "1.03785779236143",
        "inclination" : "2.729312751825548",
        "ascending_node_longitude" : "120.8658423066006",
        "orbital_period" : "386.193715694865",
        "perihelion_distance" : ".7771510316363061",
        "perihelion_argument" : "277.5277892343775",
        "aphelion_distance" : "1.298564553086555",
        "perihelion_time" : "2458122.784713268968",
        "mean_anomaly" : "246.009287599048",
        "mean_motion" : ".9321746713362862",
        "equinox" : "J2000"
      }
    } ]
  }
}